{"tags":{"source":"microsoft/BuildingFootprints","building":"yes","est_height":"5.2"}}
{"tags":{"addr:street":"Boscombe Street","building":"house"}}
{"tags":{"building":"industrial"}}
{"tags":{"source":"Direction Générale des Finances Publiques - Cadastre. Mise à jour : 2017-12-08","building":"yes"}}
{"tags":{"source":"cadastre-dgi-fr source : Direction Générale des Finances Publiques - Cadastre. Mise à jour : 2018","building":"yes","wall":"no"}}
{"tags":{"intermittent":"yes","waterway":"river"}}
{"tags":{"building":"yes"}}
{"tags":{"source":"cadastre-dgi-fr source : Direction Générale des Impôts - Cadastre. Mise à jour : 2010","building":"yes","wall":"no"}}
{"tags":{"building":"shed"}}
{"tags":{"source":"microsoft/BuildingFootprints","building":"yes","est_height":"4.3"}}
{"tags":{"name:he":"שטח של","name":"שטח של","landuse":"residential"}}
{"tags":{"building":"yes"}}
{"tags":{"source":"BAG","building":"yes","start_date":"1985","source:date":"2014-05-07","ref:bag":"243100001329202"}}
{"tags":{"building":"yes"}}
{"tags":{"capacity":"4","fee":"no","surface":"paving_stones","access":"yes","parking":"surface","amenity":"parking"}}
{"tags":{"highway":"footway","surface":"asphalt"}}
{"tags":{"source":"microsoft/BuildingFootprints","building":"yes"}}
{"tags":{"building":"yes"}}
{"tags":{"source":"maxar","highway":"residential"}}
{"tags":{"oneway":"yes","surface":"concrete","vehicle":"no","smoothness":"good","bus":"yes","highway":"service"}}
{"tags":{"source":"cadastre-dgi-fr source : Direction Générale des Impôts - Cadastre. Mise à jour : 2021","building":"yes","wall":"no"}}
{"tags":{"highway":"footway","surface":"paving_stones"}}
{"tags":{"tiger:reviewed":"no","tiger:name_base":"Sherrard","tiger:zip_left":"15301","tiger:cfcc":"A41","tiger:county":"Washington, PA","name":"Sherrard Drive","tiger:name_type":"Dr","highway":"residential"}}
{"tags":{"addr:street":"North Hawthorne Street","building":"house","addr:postcode":"11758","est_height":"4.5","addr:housenumber":"192","source":"NYS OpenData and MapBox Satellite","nysgissam:nysaddresspointid":"NASS009573","addr:city":"Massapequa","addr:state":"NY"}}
{"tags":{"building":"yes"}}
{"tags":{"access":"customers","amenity":"parking"}}
{"tags":{"source":"Algerie Mapper Team","building":"yes"}}
{"tags":{"access":"private","highway":"service"}}
{"tags":{"landuse":"farmyard"}}
{"tags":{"source:maxspeed":"DE:zone30","surface":"paved","maxspeed":"30","name":"Höcherbergstraße","lit":"yes","width":"3","highway":"residential"}}
{"tags":{"building":"yes"}}
{"tags":{"natural":"wood"}}
{"tags":{"building":"yes"}}
{"tags":{"building":"house"}}
{"tags":{"source":"DigitalGlobe, NextView","building":"yes","typhoon:damage":"yes"}}
{"tags":{"highway":"residential","created_by":"Potlatch 0.10f"}}
{"tags":{"source":"cadastre-dgi-fr source : Direction Générale des Impôts - Cadastre. Mise à jour : 2012","building":"yes","est_height":"4.4"}}
{"tags":{"building":"yes"}}
{"tags":{"source":"BAG","building":"yes","start_date":"1975","source:date":"2014-05-07","ref:bag":"855100000464384"}}
{"tags":{"building":"yes"}}
{"tags":{"source":"cadastre-dgi-fr source : Direction Générale des Finances Publiques - Cadastre. Mise à jour : 2015","building":"yes"}}
{"tags":{"source":"NRCan-CanVec-10.0","waterway":"stream"}}
{"tags":{"building":"yes"}}
{"tags":{"service":"parking_aisle","surface":"concrete","incline":"up","highway":"service"}}
{"tags":{"highway":"residential"}}
{"tags":{"highway":"service"}}
{"tags":{"man_made":"pier"}}
{"tags":{"leisure":"pitch","sport":"baseball"}}
{"tags":{"natural":"grassland"}}
{"tags":{"barrier":"hedge"}}
{"tags":{"natural":"ridge"}}
{"tags":{"name":"Rua 3","highway":"residential"}}
{"tags":{"highway":"residential"}}
{"tags":{"building":"garage"}}
{"tags":{"source":"ORT10LT","building":"yes"}}
{"tags":{"building":"yes"}}
{"tags":{"source":"YahooJapan/ALPSMAP","highway":"track"}}
{"tags":{"highway":"residential"}}
{"tags":{"barrier":"wall"}}
{"tags":{"building:levels":"1","source":"www.geoportal.gov.pl","building":"farm_auxiliary"}}
{"tags":{"building":"yes","addr:postcode":"9143","addr:city":"Feistritz ob Bleiburg","addr:place":"Hof","addr:housenumber":"59"}}
{"tags":{"highway":"residential"}}
{"tags":{"building":"yes"}}
{"tags":{"building":"yes"}}
{"tags":{"highway":"service"}}
{"tags":{"building":"yes"}}
{"tags":{"raba:id":"1100","source:date":"2015-10-31","source":"RABA-KGZ","landuse":"farmland"}}
{"tags":{"highway":"service"}}
{"tags":{"source:geometry:date":"2020-02-05","building":"yes","source:geometry":"Maxar_private;Ecopia.AI"}}
{"tags":{"building":"yes"}}
{"tags":{"building":"yes"}}
{"tags":{"addr:street":"Colonial Drive","building":"house","addr:postcode":"45140","est_height":"5.0","addr:city":"Loveland","building:levels":"2"}}
{"tags":{"addr:street":"Малиновая улица","building":"yes","addr:housenumber":"23"}}
{"tags":{"building":"yes"}}
{"tags":{"source":"BAG","building":"house","start_date":"1992","source:date":"2019-10-21","ref:bag":"0307100000319603"}}
{"tags":{"building":"yes"}}
{"tags":{"highway":"footway"}}
{"tags":{"building":"yes"}}
{"tags":{"service":"parking_aisle","highway":"service"}}
{"tags":{"highway":"residential"}}
{"tags":{"building":"yes"}}
{"tags":{"building":"yes"}}
{"tags":{"service":"driveway","highway":"service"}}
{"tags":{"landuse":"farmland"}}
{"tags":{"landuse":"flowerbed"}}
{"tags":{"building":"yes"}}
{"tags":{"barrier":"hedge"}}
{"tags":{"building:levels":"1","building":"yes","est_height":"3.4"}}
{"tags":{"waterway":"stream"}}
{"tags":{"source:date":"2008-08-19","source":"Kartverket N50"}}
{"tags":{"source":"cadastre-dgi-fr source : Direction Générale des Impôts - Cadastre. Mise à jour : 2011","building":"yes"}}
{"tags":{"source":"Regione Liguria","building":"house"}}
{"tags":{"source":"bgmountains","natural":"bare_rock"}}
{"tags":{"tiger:name_base":"BIA Highway 361","tiger:county":"Stevens, WA","name":"Bureau of Indian Affairs Highway 361","highway":"track"}}
{"tags":{"landuse":"grass"}}
{"tags":{"building":"yes","area":"yes"}}
{"tags":{"barrier":"fence"}}
{"tags":{"building":"yes","name":"Super 7"}}
{"tags":{"building":"yes"}}
{"tags":{"operator:wikidata":"Q267122","electrified":"no","maxspeed":"60 mph","operator":"BNSF Railway","name":"Aurora Subdivision","bridge":"yes","railway":"rail","gauge":"1435","usage":"main","layer":"1","railway:track_ref":"1","ref":"3"}}
{"tags":{"tiger:separated":"no","tiger:reviewed":"no","tiger:upload_uuid":"bulk_upload.pl-022a8d08-3376-4474-bc13-bdd63fc2d6fc","tiger:cfcc":"A41","tiger:county":"Madison, FL","tiger:source":"tiger_import_dch_v0.6_20070809","tiger:tlid":"53919710","highway":"residential"}}
{"tags":{"layer":"1","oneway":"yes","name":"Via Giovanni Battista Grassi","bridge":"yes","lanes":"1","cycling_width":"wide","highway":"secondary","loc_ref":"7465_34876"}}
{"tags":{"building":"yes"}}
{"tags":{"highway":"footway"}}
{"tags":{"source":"cadastre-dgi-fr source : Direction Générale des Impôts - Cadastre. Mise à jour : 2010","building":"yes"}}
{"tags":{"addr:street":"Columbo Drive","is_in:municipality":"Halifax Regional Municipality","building":"house","addr:postcode":"B2X 3M1","addr:province":"Nova Scotia","addr:city":"Dartmouth","is_in:city":"Dartmouth","addr:housenumber":"17"}}
{"tags":{"addr:street":"Mills End","building":"yes","addr:postcode":"92804","est_height":"6.1","addr:housenumber":"9531","source":"esri_bldg_OrangeCountyCA","height":"6.19","addr:city":"Orange County","addr:state":"CA"}}
{"tags":{"service":"driveway","highway":"service"}}
{"tags":{"building:levels":"3","building:part":"yes"}}
{"tags":{"building":"yes"}}
{"tags":{"addr:street":"Alte Sulzbacherstrasse","addr:country":"CH","building":"terrace","addr:postcode":"8610","addr:city":"Uster","addr:housenumber":"10"}}
{"tags":{"oneway":"yes","junction":"roundabout","lanes":"1","area":"no","highway":"secondary"}}
{"tags":{"building":"yes"}}
{"tags":{"building":"yes"}}
{"tags":{"highway":"footway"}}
{"tags":{"building":"yes"}}
{"tags":{"building":"yes"}}
{"tags":{"building":"yes","est_height":"5.8"}}
{"tags":{"water":"pond","natural":"water"}}
{"tags":{"foot":"yes","access":"no","highway":"footway"}}
{"tags":{"source":"cadastre-dgi-fr source : Direction Générale des Impôts - Cadastre. Mise à jour : 2022","building":"yes"}}
{"tags":{"source":"cuzk:ruian","building":"yes","ref:ruian:building":"19806779","start_date":"2013-09-11","building:ruian:type":"8","building:levels":"2"}}
{"tags":{"highway":"service"}}
{"tags":{"lane_markings":"no","oneway":"yes","surface":"asphalt","source":"cadastre-dgi-fr source : Direction Générale des Impôts - Cadastre ; mise à jour : 2010","name":"Rue des Chênes Rouges","cycleway:both":"no","highway":"secondary"}}
{"tags":{"landuse":"reservoir"}}
{"tags":{"building":"yes"}}
{"tags":{"natural":"water","source:date":"2009-07-19","source":"Kartverket N50","ele":"544"}}
{"tags":{"name:ru":"10-я линия","name":"10-я линия","highway":"service"}}
{"tags":{"source":"cadastre-dgi-fr source : Direction Générale des Impôts - Cadastre. Mise à jour : 2011","building":"detached","est_height":"4.9"}}
{"tags":{"highway":"track"}}
{"tags":{"access":"customers","amenity":"parking","description":"Parkplatz Haus 1","parking":"surface"}}
{"tags":{"building":"house"}}
{"tags":{"natural":"wood"}}
{"tags":{"source":"Akros","building":"residential"}}
{"tags":{"addr:street":"Avenue Elisabeth","source:geometry:date":"2016-06-09","building":"house","addr:postcode":"7500","addr:city":"Tournai","addr:housenumber":"3","source:geometry:ref":"Picc/3101443"}}
{"tags":{"highway":"path"}}
{"tags":{"building":"yes","est_height":"3.5"}}
{"tags":{"addr:country":"ES","source":"Eusko Jaurlaritza/Gobierno Vasco","building":"yes","addr:postcode":"01409","addr:province":"Araba/Álava","addr:city":"Okondo","addr:place":"Billatxika","addr:housenumber":"22"}}
{"tags":{"building":"yes"}}
{"tags":{"landuse":"meadow"}}
{"tags":{"highway":"residential"}}
{"tags":{"building":"garage"}}
{"tags":{"building":"yes"}}
{"tags":{"leisure":"garden"}}
{"tags":{"source":"cadastre-dgi-fr source : Direction Générale des Impôts - Cadastre. Mise à jour : 2010","building":"yes","wall":"no"}}
{"tags":{"addr:street":"Jola Avenue","building":"yes","addr:postcode":"92843","est_height":"3.1","addr:housenumber":"11381","source":"esri/Orange_County_CA_Buildings_v3","height":"3.75","addr:city":"Garden Grove","addr:state":"CA"}}
{"tags":{"building":"yes"}}
{"tags":{"source":"bing","building":"yes","project:PDEVII":"yes"}}
{"tags":{"building":"yes"}}
{"tags":{"highway":"footway","surface":"ground"}}
{"tags":{"building":"yes"}}
{"tags":{"natural":"wood"}}
{"tags":{"highway":"residential"}}
{"tags":{"name":"Greenbelt Trail","crossing":"unmarked","crossing:markings":"no","footway":"crossing","highway":"footway"}}
{"tags":{"landuse":"grass"}}
{"tags":{"source":"extraction vectorielle v1 cadastre-dgi-fr source : Direction Générale des Impôts - Cadas. Mise à jour : 2010","building":"yes"}}
{"tags":{"source":"BAG","building":"house","start_date":"1965","source:date":"2014-05-26","ref:bag":"880100000004869"}}
{"tags":{"building":"yes"}}
{"tags":{"highway":"footway"}}
{"tags":{"building":"yes"}}
{"tags":{"access":"private","highway":"service"}}
{"tags":{"addr:street":"Düsseldorfer Straße","building":"apartments","addr:postcode":"40822","building:levels":"2","addr:housenumber":"132","roof:shape":"hipped","addr:country":"DE","roof:levels":"1","addr:city":"Mettmann"}}
{"tags":{"building":"yes","est_height":"3.0"}}
{"tags":{"content":"fuel","building:material":"steel","source":"DigitalGlobal Premium Image 10-12-17","building":"industrial","covered":"yes","man_made":"storage_tank"}}
{"tags":{"amenity":"parking","fee":"yes"}}
{"tags":{"addr:street":"Паромная улица","source":"Bing","building":"house","addr:postcode":"416503","addr:city":"Ахтубинск","addr:housenumber":"21"}}
{"tags":{"name":"Calle 1A","highway":"residential"}}
{"tags":{"source":"microsoft/BuildingFootprints","building":"yes","est_height":"4.8"}}
{"tags":{"building":"yes"}}
{"tags":{"building":"yes"}}
{"tags":{"natural":"scrub"}}
{"tags":{"building":"house"}}
{"tags":{"highway":"residential"}}
{"tags":{"addr:street":"Weltzienstraße","addr:country":"DE","building":"apartments","addr:postcode":"76135","addr:city":"Karlsruhe","addr:housenumber":"15","addr:suburb":"Weststadt"}}
{"tags":{"building":"yes"}}
{"tags":{"building":"yes"}}
{"tags":{"building":"yes"}}
{"tags":{"service":"driveway","surface":"unpaved","source":"maxar","highway":"service"}}
{"tags":{"building":"yes"}}
{"tags":{"landuse":"basin"}}
{"tags":{"building":"yes"}}
{"tags":{"addr:street":"Holmes Avenue","building":"house","addr:postcode":"22901","est_height":"4.6","addr:city":"Charlottesville","addr:state":"VA","addr:housenumber":"1214"}}
{"tags":{"building":"cabin","ref:bygningsnr":"168619081"}}
{"tags":{"source":"AGIS 2016","building":"yes"}}
{"tags":{"tiger:reviewed":"no","tiger:cfcc":"A41","tiger:county":"Lake, OR","highway":"track"}}
{"tags":{"source":"FB: Algerie Mapper Team : (Superadlen)","building":"yes"}}
{"tags":{"building":"shed","ref:bygningsnr":"159974960"}}
{"tags":{"building":"yes"}}
{"tags":{"barrier":"wall"}}
{"tags":{"building":"yes"}}
{"tags":{"tiger:reviewed":"no","surface":"asphalt","tiger:name_base":"Hines Lakeview","tiger:cfcc":"A41","tiger:county":"Barron, WI","name":"Hines Lakeview Drive","tiger:name_type":"Dr","highway":"unclassified"}}
{"tags":{"building":"yes"}}
{"tags":{"source:date":"2012-07-10","source":"Kartverket N50"}}
{"tags":{"building":"garage","ref:bygningsnr":"192696372"}}
{"tags":{"highway":"footway"}}
{"tags":{"building":"house"}}
{"tags":{"bridge":"yes","layer":"1","highway":"residential"}}
{"tags":{"source":"esri/Pemba_Buildings","building":"yes","ref:BRN":"171H20101"}}
{"tags":{"building:levels":"1","source":"microsoft/BuildingFootprints","building":"yes"}}
{"tags":{"building":"yes"}}
{"tags":{"building":"house"}}
{"tags":{"layer":"-1","tunnel":"culvert","waterway":"stream"}}
{"tags":{"building":"yes"}}
{"tags":{"layer":"1","tiger:cfcc":"A41","tiger:county":"Fresno, CA","bridge":"yes","highway":"track"}}
{"tags":{"building":"house","est_height":"5.6"}}
{"tags":{"source":"Lasy Państwowe","operator":"PGL LP","ref":"257","adr_les":"12-03-2-11-257   -    -","landuse":"forest"}}
{"tags":{"amenity":"parking_space","source:geometry":"CRAIG 2019 imagery"}}
{"tags":{"tiger:reviewed":"no","tiger:upload_uuid":"bulk_upload.pl-96a4f984-f9c0-462c-b8e5-65ffbab24d85","access":"private","tiger:cfcc":"A74","tiger:county":"Stokes, NC","tiger:source":"tiger_import_dch_v0.6_20070829","tiger:tlid":"56339291","highway":"service"}}
{"tags":{"oneway":"yes","surface":"asphalt","highway":"residential"}}
{"tags":{"building":"yes"}}
{"tags":{"lit":"no","surface":"paved","highway":"cycleway"}}
{"tags":{"source":"Bing","aeroway":"runway"}}
{"tags":{"source":"microsoft/BuildingFootprints","building":"yes"}}
{"tags":{"source:name":"IBGE","surface":"asphalt","name":"Rua São Dimas","highway":"residential"}}
{"tags":{"building":"yes"}}
{"tags":{"addr:street":"Коммунистическая улица","addr:country":"RU","building":"yes","addr:city":"Усть-Лабинск","addr:housenumber":"147"}}
{"tags":{"building":"yes"}}
{"tags":{"source":"Japan GSI seamlessphoto Imagery","building":"yes"}}
{"tags":{"bicycle":"no","oneway":"yes","tiger:cfcc":"A63","tiger:county":"Contra Costa, CA","lanes":"1","destination":"Lafayette;Rossmoor;Pleasant Hill Road South;Mount Diablo Boulevard","highway":"motorway_link"}}
{"tags":{"building":"yes"}}
{"tags":{"natural":"wood"}}
{"tags":{"landuse":"meadow"}}
{"tags":{"landuse":"farmland"}}
{"tags":{"oneway":"yes","surface":"paving_stones","source":"survey","service":"parking_aisle","lit":"yes","highway":"service"}}
{"tags":{"source":"NRCan-CanVec-7.0","waterway":"stream"}}
{"tags":{"highway":"footway"}}
{"tags":{"nhd:reach_code":"18060005016350","intermittent":"yes","source":"NHD","nhd:com_id":"37341255","waterway":"stream","nhd:fdate":"Thu Mar 28 00:00:00 PST 2002"}}
{"tags":{"natural":"water"}}
{"tags":{"building":"yes","est_height":"3.9"}}
{"tags":{"building":"yes"}}
{"tags":{"building:levels":"2","building":"yes","roof:shape":"hipped"}}
{"tags":{"tiger:zip_left":"61081","tiger:cfcc":"A41","name":"Maddens Drive","tiger:name_type":"Dr","highway":"residential","tiger:reviewed":"no","tiger:zip_right":"61081","tiger:name_base":"Maddens","tiger:county":"Whiteside, IL"}}
{"tags":{"location":"surface","generator:type":"solar_photovoltaic_panel","power":"generator","generator:output:electricity":"yes","generator:method":"photovoltaic","generator:source":"solar"}}
{"tags":{"building":"yes"}}
{"tags":{"building":"yes"}}
{"tags":{"surface":"paving_stones","footway":"sidewalk","highway":"footway"}}
{"tags":{"building":"yes"}}
{"tags":{"building":"yes"}}
{"tags":{"building":"yes"}}
{"tags":{"highway":"residential","noname":"yes"}}
{"tags":{"tracktype":"grade2","highway":"track"}}
{"tags":{"source":"BAG","building":"yes","start_date":"1960","source:date":"2014-03-24","ref:bag":"1892100000634209"}}
{"tags":{"building":"yes"}}
{"tags":{"building":"yes"}}
{"tags":{"building":"yes"}}
{"tags":{"building":"yes"}}
{"tags":{"source":"bing","building":"greenhouse"}}
{"tags":{"addr:street":"Clarion Road","building":"yes","addr:postcode":"20744","est_height":"4.6","addr:housenumber":"13025","roof:shape":"gabled","source":"M-NCPPC","height":"7.38265057303","addr:city":"Fort Washington","addr:state":"MD"}}
{"tags":{"addr:state":"FL","source":"esri/Lee_County_FL_Buildings","building":"yes"}}
{"tags":{"source":"Algerie Mapper Team (Superadlen)","building":"yes"}}
{"tags":{"ref:codcat":"136730100000000460011000000000","building:levels":"1","building":"yes"}}
{"tags":{"highway":"service","surface":"asphalt"}}
{"tags":{"source":"NRCan-CanVec-10.0","waterway":"stream"}}
{"tags":{"highway":"service"}}
{"tags":{"addr:municipality":"Ilala","addr:street":"Senegal","building:condition":"good","building:material":"concrete_reinforced","addr:ward":"Upanga Maghalibi","building":"residential","building:age":"post_2000","building:roof":"concrete","building:levels":"2","source":"SWM Field Survey 2021","addr:subward":"Fire","addr:city":"Dar es Salaam"}}
{"tags":{"access":"destination","amenity":"parking"}}
{"tags":{"source":"cadastre-dgi-fr source : Direction Générale des Impôts - Cadastre. Mise à jour : 2011","building":"yes"}}
{"tags":{"amenity":"parking_space"}}
{"tags":{"nvdb:date":"1992-07-01","nvdb:id":"146031242","highway":"service"}}
{"tags":{"building":"yes"}}
{"tags":{"boundary":"administrative","name:ka":"ნემანი","name:ko":"네만 강","waterway":"river","name:cs":"Němen","CEMT":"I","alt_name:uk":"Німан;Ньоман","name:pl":"Niemen","alt_name:hu":"Nyeman","name:de":"Memel","wikidata":"Q5622","name:lt":"Nemunas","name:hu":"Nemunas","name:hr":"Njemen","name:lv":"Nemuna","description":"14th largest river in Europe, rising in Belarus and flowing through Lithuania before draining into the Curonian Lagoon and then into the Baltic Sea at Klaipėda. 900km long.","admin_level":"6","name:uk":"Нємунас","alt_name:en":"Neman River","name":"Nemunas","alt_name:ru":"Неман","length":"900km","name:en":"Nemunas River","name:et":"Neemen","wikipedia":"lt:Nemunas","name:nl":"Memel","name:be":"Нёман","name:ru":"Немунас","name:fr":"Le Niémen","boat":"yes"}}
{"tags":{"building":"yes"}}
{"tags":{"building":"yes"}}
{"tags":{"source":"cadastre-dgi-fr source : Direction Générale des Finances Publiques - Cadastre. Mise à jour : 2017","building":"yes","wall":"no"}}
{"tags":{"building":"yes"}}
{"tags":{"building":"yes"}}
{"tags":{"source":"microsoft/BuildingFootprints","building":"yes"}}
{"tags":{"building":"yes"}}
{"tags":{"addr:street":"Windridge Drive","source":"esri/Indianapolis_IN_Buildings","building":"yes","addr:postcode":"46226","addr:city":"Indianapolis","addr:state":"IN","addr:housenumber":"5270"}}
{"tags":{"building":"yes"}}
{"tags":{"highway":"footway"}}
{"tags":{"bridge":"yes","layer":"1","source":"maxar","highway":"residential"}}
{"tags":{"building":"yes"}}
{"tags":{"building":"yes"}}
{"tags":{"natural":"tree_row"}}
{"tags":{"highway":"residential"}}
{"tags":{"building":"yes"}}
{"tags":{"building":"yes"}}
{"tags":{"animal":"goat","meadow":"paddock","landuse":"meadow"}}
{"tags":{"building":"yes"}}
{"tags":{"source":"Bing","building":"yes"}}
{"tags":{"landuse":"farmland"}}
{"tags":{"barrier":"wall"}}
{"tags":{"addr:street":"улица Маслякова","building":"yes","addr:postcode":"603000","building:levels":"4","addr:housenumber":"9","roof:shape":"hipped","building:architecture":"stalinist_neoclassicism"}}
{"tags":{"surface":"hard","source":"Bing","sport":"tennis","lit":"yes","leisure":"pitch"}}
{"tags":{"attribution":"GeoBase®","source":"Geobase_Import_2009","is_in":"Champion,Alberta","name":"2nd Street","lanes":"2","geobase:acquisitionTechnique":"GPS","highway":"residential"}}
{"tags":{"location":"surface","generator:type":"solar_photovoltaic_panel","power":"generator","generator:output:electricity":"yes","generator:method":"photovoltaic","generator:source":"solar"}}
{"tags":{"source":"NRCan-CanVec-10.0","natural":"water"}}
{"tags":{"addr:street":"улица Пушкина","building":"yes","addr:postcode":"619200","addr:city":"Юрла","addr:housenumber":"16"}}
{"tags":{"building":"yes"}}
{"tags":{"landuse":"residential"}}
{"tags":{"natural":"wood"}}
{"tags":{"building":"yes"}}
{"tags":{"building":"yes"}}
{"tags":{"building":"yes"}}
{"tags":{"addr:street":"North 19th Street","building":"house","addr:postcode":"85016","est_height":"4.2","addr:housenumber":"6902","addr:country":"US","source":"esri_USDOT_Arizona;microsoft/BuildingFootprints","addr:city":"Phoenix","addr:state":"AZ"}}
{"tags":{"building":"yes"}}
{"tags":{"building":"yes"}}
{"tags":{"addr:street":"Chester Road","building":"yes","est_height":"9.8","addr:housenumber":"78"}}
{"tags":{"leisure":"pitch"}}
{"tags":{"building":"yes"}}
{"tags":{"building":"yes"}}
{"tags":{"addr:street":"Biltmore Street Northwest","building":"house","dcgis:gis_id":"99187","dcgis:square":"2546","addr:housenumber":"1977","house":"terraced","source":"dcgis","dcgis:captureyear":"19990331","dcgis:lot":"0066","dataset":"buildings","addr:state":"DC"}}
{"tags":{"nycdoitt:bin":"3403625","height":"9.1","building":"yes","est_height":"29.8"}}
{"tags":{"building":"yes"}}
{"tags":{"religion":"christian","landuse":"religious"}}
{"tags":{"tiger:zip_left":"55612","tiger:cfcc":"A41","tiger:name_direction_prefix":"S","name":"South Caribou Drive","tiger:name_type":"Dr","highway":"residential","tiger:reviewed":"no","tiger:name_base":"Caribou","tiger:county":"Cook, MN"}}
{"tags":{"highway":"footway"}}
{"tags":{"building":"yes"}}
{"tags":{"building":"yes","est_height":"4.5"}}
{"tags":{"highway":"path"}}
{"tags":{"building":"yes"}}
{"tags":{"import":"budovy201004","source":"kapor2","building":"yes"}}
{"tags":{"building":"yes"}}
{"tags":{"service":"parking_aisle","oneway":"yes","surface":"asphalt","highway":"service"}}
{"tags":{"addr:street":"Smith Road","building":"yes","est_height":"5.0","addr:housenumber":"81"}}
{"tags":{"waterway":"stream"}}
{"tags":{"cycleway:left":"lane","oneway":"yes","maxspeed":"30 mph","name":"Simonsway","lit":"yes","highway":"tertiary"}}
{"tags":{"intermittent":"yes","waterway":"stream"}}
{"tags":{"source":"microsoft/BuildingFootprints","building":"yes","est_height":"4.1"}}
{"tags":{"landuse":"farmland"}}
{"tags":{"landuse":"grass"}}
{"tags":{"yh:TYPE":"その他一般道","source":"YahooJapan/ALPSMAP","yh:STRUCTURE":"地上","yh:WIDTH_RANK":"3","yh:TOTYUMONO":"供用中","yh:WIDTH":"3.0m〜5.5m","highway":"unclassified"}}
{"tags":{"service":"parking_aisle","highway":"service"}}
{"tags":{"building":"yes"}}
{"tags":{"building":"yes"}}
{"tags":{"service":"parking_aisle","oneway":"no","surface":"paving_stones","highway":"service"}}
{"tags":{"service":"driveway","surface":"gravel","access":"customers","highway":"service"}}
{"tags":{"building":"yes"}}
{"tags":{"source":"microsoft/BuildingFootprints","building":"yes"}}
{"tags":{"source":"NRCan-CanVec-10.0","waterway":"stream"}}
{"tags":{"service":"alley","highway":"service"}}
{"tags":{"building":"yes"}}
{"tags":{"natural":"wood"}}
{"tags":{"building":"yes"}}
{"tags":{"building":"yes"}}
{"tags":{"building":"yes"}}
{"tags":{"addr:street":"Monakamer Kirchweg","addr:country":"DE","building":"house","addr:postcode":"75378","addr:city":"Bad Liebenzell","addr:housenumber":"8","addr:suburb":"Monakam"}}
{"tags":{"surface":"gravel","trail_visibility":"excellent","highway":"path","sac_scale":"hiking"}}
{"tags":{"maxspeed":"50","name":"Strada Statale 26 dir della Valle d'Aosta","name:en":"State Route 26 dir (Aosta Valley)","highway":"primary","surface":"asphalt","nat_ref":"SS26dir","ref":"SS26dir","lanes":"2","name:fr":"Route nationale 26"}}
{"tags":{"building":"yes"}}
{"tags":{"building":"yes"}}
{"tags":{"public_transport":"station","building":"yes","name":"Hidroviária de Santarém"}}
{"tags":{"source":"cadastre-dgi-fr source : Direction Générale des Finances Publiques - Cadastre. Mise à jour : 2013","building":"yes","wall":"no"}}
{"tags":{"building":"yes"}}
{"tags":{"leisure":"pitch","sport":"tennis"}}
{"tags":{"source":"microsoft/BuildingFootprints","building":"yes"}}
{"tags":{"highway":"residential","surface":"asphalt"}}
{"tags":{"source":"DigitalGlobe Premium Imagery","highway":"unclassified"}}
{"tags":{"building":"yes","est_height":"11.6"}}
{"tags":{"building":"yes"}}
{"tags":{"addr:street":"North 73rd Street","building":"yes","addr:postcode":"53223","est_height":"5.7","addr:city":"Milwaukee","addr:state":"WI","addr:housenumber":"6427,6429"}}
{"tags":{"source":"digitalglobe","highway":"service"}}
{"tags":{"highway":"unclassified"}}
{"tags":{"building":"yes"}}
{"tags":{"building":"yes"}}
{"tags":{"source":"survey","barrier":"wall"}}
{"tags":{"addr:street":"Springfield Lane","building":"house","addr:postcode":"NP10 8QZ","addr:city":"Newport","addr:housenumber":"16"}}
{"tags":{"building":"yes","addr:province":"Aurora"}}
{"tags":{"source":"cadastre-dgi-fr source : Direction Générale des Impôts - Cadastre. Mise à jour : 2011","building":"yes"}}
{"tags":{"building":"yes"}}
{"tags":{"building":"yes"}}
{"tags":{"name":"Rua Duque de Caxias","highway":"residential"}}
{"tags":{"source":"Bing","building":"yes"}}
{"tags":{"building":"yes"}}
{"tags":{"building":"house","est_height":"3.1","lacounty:ain":"5067004010","lacounty:bld_id":"456894838154","building:units":"1","start_date":"1925","height":"2.9","ele":"40.5"}}
{"tags":{"building":"yes"}}
{"tags":{"building":"yes"}}
{"tags":{"building":"yes"}}
{"tags":{"natural":"water","source:date":"2002-06-08","source":"Kartverket N50","ele":"1205"}}
{"tags":{"service":"parking_aisle","highway":"service"}}
{"tags":{"building:levels":"2","building":"house"}}
{"tags":{"barrier":"wall"}}
{"tags":{"leaf_type":"needleleaved","wetland":"swamp","natural":"wetland"}}
{"tags":{"addr:street":"Пограничная улица","addr:city":"Петропавловск-Камчатский","building":"yes","addr:housenumber":"23"}}
{"tags":{"source":"cadastre-dgi-fr source : Direction Générale des Impôts - Cadastre. Mise à jour : 2011","building":"yes"}}
{"tags":{"addr:street":"Rietwiesstrasse","building":"yes","addr:postcode":"8810","addr:city":"Horgen","addr:housenumber":"120b"}}
{"tags":{"golf":"water_hazard","natural":"water"}}
{"tags":{"building":"yes"}}
{"tags":{"building":"yes"}}
{"tags":{"barrier":"fence"}}
{"tags":{"building:part":"yes","building:levels":"3","building:levels:underground":"1"}}
{"tags":{"source":"microsoft/BuildingFootprints","building":"yes"}}
{"tags":{"building":"yes"}}
{"tags":{"addr:street":"Сумская улица","building:colour":"#DFC78E","building":"apartments","building:levels":"12","roof:colour":"#888888","addr:housenumber":"38"}}
{"tags":{"man_made":"works","building":"yes"}}
{"tags":{"building":"house","est_height":"6.6"}}
{"tags":{"highway":"tertiary"}}
{"tags":{"building":"yes"}}
{"tags":{"building":"yes"}}
{"tags":{"wetland":"wet_meadow","natural":"wetland"}}
{"tags":{"building":"yes"}}
{"tags":{"source":"BAG","building":"shed","start_date":"2001","source:date":"2013-11-26","ref:bag":"518100000347368"}}
{"tags":{"bridge":"yes","layer":"1","surface":"unpaved","highway":"service"}}
{"tags":{"building":"yes","est_height":"4.1"}}
{"tags":{"natural":"wood"}}
{"tags":{"building":"roof"}}
{"tags":{"building":"yes"}}
{"tags":{"building":"yes"}}
{"tags":{"maxspeed:type":"UA:urban","turn:forward":"left;through","name:uk":"вулиця Героїв України / вулиця Климента Тімірязєва","maxspeed":"50","name":"вулиця Героїв України / вулиця Климента Тімірязєва","name:right:en":"Klymenta Timiriazieva Street","name:right:uk":"вулиця Климента Тімірязєва","highway":"tertiary","surface":"asphalt","lanes:forward":"1","name:right":"вулиця Климента Тімірязєва","lanes:backward":"1","name:left:uk":"вулиця Героїв України","lanes":"2","name:left":"вулиця Героїв України","name:right:ru":"улица Климента Тимирязева"}}
{"tags":{"building":"house","est_height":"3.1","lacounty:ain":"6028014005","lacounty:bld_id":"486252809292","building:units":"1","start_date":"1920","height":"2.7","ele":"43.8"}}
{"tags":{"source":"cadastre-dgi-fr source : Direction Générale des Impôts - Cadastre. Mise à jour : 2016","building":"yes","wall":"no"}}
{"tags":{"highway":"residential","oneway":"no"}}
{"tags":{"source:date":"2008-06-03","source":"Kartverket N50"}}
{"tags":{"building":"yes"}}
{"tags":{"building":"house","addr:housenumber":"25"}}
{"tags":{"source":"GSI/KIBAN 2500; NARO","source_ref":"http://wiki.osm.org/wiki/GSI_KIBAN","building":"yes"}}
{"tags":{"source":"NRCan-CanVec-8.0","waterway":"stream"}}
{"tags":{"highway":"track"}}
{"tags":{"source":"cadastre-dgi-fr source : Direction Générale des Impôts - Cadastre. Mise à jour : 2010","building":"yes"}}
{"tags":{"tiger:separated":"no","tiger:zip_left":"76133","tiger:cfcc":"A41","name":"Indio Street","tiger:name_type":"St","highway":"residential","tiger:reviewed":"no","tiger:zip_right":"76133","tiger:name_base":"Indio","tiger:county":"Tarrant, TX","tiger:source":"tiger_import_dch_v0.6_20070830","tiger:tlid":"102111342"}}
{"tags":{"source":"microsoft/BuildingFootprints","building":"yes"}}
{"tags":{"building":"shed"}}
{"tags":{"source":"BAG","building":"house","start_date":"1920","source:date":"2014-03-24","ref:bag":"9100007679576"}}
{"tags":{"man_made":"pier"}}
{"tags":{"building":"yes"}}
{"tags":{"addr:street":"Johann Strauß-Gasse","addr:country":"AT","building":"yes","addr:postcode":"2544","at_bev:addr_date":"2018-10-01","addr:city":"Leobersdorf","addr:housenumber":"7"}}
{"tags":{"source":"cadastre-dgi-fr source : Direction Générale des Impôts - Cadastre. Mise à jour : 2011","building":"yes"}}
{"tags":{"addr:street":"Eichenweg","building":"yes","addr:postcode":"6212","addr:city":"St. Erhard","addr:housenumber":"27"}}
{"tags":{"barrier":"hedge"}}
{"tags":{"footway":"sidewalk","highway":"footway"}}
{"tags":{"highway":"residential"}}
{"tags":{"natural":"bare_rock"}}
{"tags":{"foot":"yes","lcn":"yes","maxspeed":"10 mph","highway":"service"}}
{"tags":{"building":"yes"}}
{"tags":{"building":"yes"}}
{"tags":{"highway":"residential"}}
{"tags":{"lit":"yes","surface":"paving_stones","highway":"footway"}}
{"tags":{"ref:codcat":"230010106000001740009000000000","building:levels":"1","building":"yes"}}
{"tags":{"maxspeed:type":"PL:urban","maxspeed":"50","highway:category:pl":"2","name":"Kłodnicka","smoothness":"good","highway":"secondary","surface":"asphalt","ref":"423","lanes":"2"}}
{"tags":{"golf":"green","landuse":"grass"}}
{"tags":{"highway":"footway","surface":"dirt"}}
{"tags":{"surface":"unpaved","source":"Bing","highway":"unclassified"}}
{"tags":{"source":"Bing Sep/2011","building":"yes"}}
{"tags":{"highway":"residential"}}
{"tags":{"addr:street":"Hauptstraße","building":"yes","addr:housenumber":"50"}}
{"tags":{"building":"yes"}}
{"tags":{"building":"yes"}}
{"tags":{"highway":"footway"}}
{"tags":{"source":"NRCan-CanVec-10.0","natural":"water"}}
{"tags":{"landuse":"residential"}}
{"tags":{"building":"yes"}}
{"tags":{"building":"yes"}}
{"tags":{"building":"residential","est_height":"4.2","building:units":"2","roof:shape":"hipped","lacounty:ain":"4080011009","lacounty:bld_id":"452857779646","start_date":"1958","height":"4.8","ele":"28.4"}}
{"tags":{"building":"yes"}}
{"tags":{"highway":"path"}}
{"tags":{"highway":"footway"}}
{"tags":{"building":"yes"}}
{"tags":{"source":"Algerie Mapper Team","building":"yes"}}
{"tags":{"source":"cadastre-dgi-fr source : Direction Générale des Impôts - Cadastre. Mise à jour : 2012","building":"yes","est_height":"4.2"}}
{"tags":{"name":"Schwimmbad","natural":"water"}}
{"tags":{"addr:street":"Promenada","building":"apartments","addr:postcode":"00-778","building:levels":"3","source:addr":"gugik.gov.pl","addr:housenumber":"21","historic":"yes","addr:city:simc":"0918123","source":"www.geoportal.gov.pl","addr:city":"Warszawa"}}
{"tags":{"building:levels":"1","building:part":"yes"}}
{"tags":{"source":"cadastre-dgi-fr source : Direction Générale des Impôts - Cadastre. Mise à jour : 2011","building":"yes","wall":"no"}}
{"tags":{"building":"yes"}}
{"tags":{"source":"cadastre-dgi-fr source : Direction Générale des Impôts - Cadastre. Mise à jour : 2012","building":"yes"}}
{"tags":{"building":"yes"}}
{"tags":{"building":"yes","est_height":"5.0"}}
{"tags":{"source":"cadastre-dgi-fr source : Direction Générale des Finances Publiques - Cadastre. Mise à jour : 2016","building":"yes"}}
{"tags":{"building":"yes"}}
{"tags":{"building":"yes"}}
{"tags":{"building":"yes"}}
{"tags":{"name":"улица Иванова","highway":"residential"}}
{"tags":{"building":"yes","est_height":"4.4"}}
{"tags":{"source":"cadastre-dgi-fr source : Direction Générale des Finances Publiques - Cadastre. Mise à jour : 2015","building":"yes"}}
{"tags":{"source":"CanVec 6.0 - NRCan","waterway":"stream"}}
{"tags":{"building":"yes","est_height":"5.2"}}
{"tags":{"service":"driveway","highway":"service"}}
{"tags":{"addr:street":"Alte Poststraße","addr:country":"DE","building":"yes","addr:postcode":"46514","addr:city":"Schermbeck","addr:housenumber":"116"}}
{"tags":{"source":"BAG","building":"yes","start_date":"1975","source:date":"2014-03-24","ref:bag":"718100000009258"}}
{"tags":{"building:levels":"1","building":"farm_auxiliary"}}
{"tags":{"building":"yes"}}
{"tags":{"highway":"unclassified","surface":"unpaved"}}
{"tags":{"building":"yes"}}
{"tags":{"building":"yes"}}
{"tags":{"building":"yes"}}
{"tags":{"natural":"scrub"}}
{"tags":{"building":"yes"}}
{"tags":{"highway":"service","surface":"asphalt"}}
{"tags":{"building":"yes"}}
{"tags":{"source":"cadastre-dgi-fr source : Direction Générale des Impôts - Cadastre. Mise à jour : 2021","building":"yes"}}
{"tags":{"surface":"sett","maxspeed":"30","name":"Ankdammsgatan","highway":"residential"}}
{"tags":{"lit":"yes","surface":"paving_stones","name":"Paul-Klee-Weg","highway":"living_street"}}
{"tags":{"landuse":"meadow"}}
{"tags":{"building":"yes"}}
{"tags":{"building":"yes"}}
{"tags":{"landuse":"residential"}}
{"tags":{"landuse":"residential"}}
{"tags":{"highway":"residential"}}
{"tags":{"source:date":"2016-09-13","source":"Kartverket N50"}}
{"tags":{"source":"cadastre-dgi-fr source : Direction Générale des Impôts - Cadastre. Mise à jour : 2012","building":"yes"}}
{"tags":{"building":"yes","ref:BRN":"133F30116"}}
{"tags":{"building":"yes"}}
{"tags":{"building":"yes","est_height":"5.4"}}
{"tags":{"building":"yes","est_height":"4.1"}}
{"tags":{"addr:street":"Allée des Acacias","addr:country":"FR","source":"cadastre-dgi-fr source : Direction Générale des Impôts - Cadastre. Mise à jour : 2009","building":"yes","addr:postcode":"59117","est_height":"5.8","addr:city":"Wervicq-Sud","addr:housenumber":"47"}}
{"tags":{"ref:codcat":"134300101000002680012000000000","building:levels":"1","building":"yes"}}
{"tags":{"building":"yes"}}
{"tags":{"building":"yes"}}
{"tags":{"landuse":"residential"}}
{"tags":{"source":"cadastre-dgi-fr source : Direction Générale des Finances Publiques - Cadastre. Mise à jour : 2014","building":"yes"}}
{"tags":{"layer":"-1","tunnel":"culvert","waterway":"ditch"}}
{"tags":{"building":"yes"}}
{"tags":{"building":"yes"}}
{"tags":{"surface":"asphalt","source":"CanVec 6.0 - NRCan","name":"Wellington Road 26","ref":"26","lanes":"2","highway":"secondary"}}
{"tags":{"building":"yes"}}
{"tags":{"highway":"service"}}
{"tags":{"nycdoitt:bin":"3393914","addr:street":"Skillman Avenue","building":"yes","addr:postcode":"11211","est_height":"20.9","height":"16.8","addr:housenumber":"253"}}
{"tags":{"building:levels":"1","building":"house","roof:shape":"gabled"}}
{"tags":{"building":"yes"}}
{"tags":{"natural":"scrub"}}
{"tags":{"addr:street":"first road","building:material":"cement_block","building":"residential","toilets:position":"outside","building:levels":"1","addr:housenumber":"18/47"}}
{"tags":{"highway":"residential"}}
{"tags":{"width":"2","surface":"paved","highway":"service"}}
{"tags":{"religion":"muslim","amenity":"place_of_worship","building":"yes","name":"мечеть имени Хусейна Канташова"}}
{"tags":{"building":"yes"}}
{"tags":{"building":"yes"}}
{"tags":{"building":"yes"}}
{"tags":{"building":"yes"}}
{"tags":{"source":"cadastre-dgi-fr source : Direction Générale des Impôts - Cadastre. Mise à jour : 2011","building":"yes","wall":"no"}}
{"tags":{"building":"yes"}}
{"tags":{"building":"yes"}}
{"tags":{"water":"pond","natural":"water"}}
{"tags":{"source":"Geoimage.at MaxRes","building":"yes"}}
{"tags":{"building":"yes"}}
{"tags":{"source":"cadastre-dgi-fr source : Direction Générale des Finances Publiques - Cadastre. Mise à jour : 2020","building":"yes","wall":"no"}}
{"tags":{"building":"residential"}}
{"tags":{"building":"yes"}}
{"tags":{"building":"yes"}}
{"tags":{"building":"yes"}}
{"tags":{"addr:street":"Fő utca","building":"yes","addr:postcode":"2096","addr:city":"Üröm","addr:housenumber":"34"}}
{"tags":{"name":"Calle Noguerillo","highway":"residential"}}
{"tags":{"source":"microsoft/BuildingFootprints","building":"yes","est_height":"5.7"}}
{"tags":{"building":"yes"}}
{"tags":{"source":"cadastre-dgi-fr source : Direction Générale des Impôts - Cadastre. Mise à jour : 2019","building":"yes"}}
{"tags":{"building":"yes"}}
{"tags":{"source":"Bing","building":"residential"}}
{"tags":{"highway":"path"}}
{"tags":{"building":"yes"}}
{"tags":{"building":"yes"}}
{"tags":{"building":"yes"}}
{"tags":{"source":"cadastre-dgi-fr source : Direction Générale des Finances Publiques - Cadastre. Mise à jour : 2017","building":"yes"}}
{"tags":{"building":"yes"}}
{"tags":{"residential":"single_family","landuse":"residential"}}
{"tags":{"source":"cadastre-dgi-fr source : Direction Générale des Finances Publiques - Cadastre. Mise à jour : 2019","building":"yes","est_height":"4.0"}}
{"tags":{"addr:street":"Гридинская улица","building":"house","addr:housenumber":"32"}}
{"tags":{"source":"Japan GSI ortho Imagery","building":"yes"}}
{"tags":{"building":"yes"}}
{"tags":{"building":"yes"}}
{"tags":{"building":"yes"}}
{"tags":{"addr:street":"Neue-Welt-Straße","addr:country":"DE","building":"yes","addr:postcode":"66740","est_height":"8.5","addr:city":"Saarlouis","addr:housenumber":"7b"}}
{"tags":{"source":"Bing","building":"yes"}}
{"tags":{"natural":"wood"}}
{"tags":{"addr:street":"Händelweg","building":"house","addr:postcode":"24159","addr:city":"Kiel","addr:housenumber":"54"}}
{"tags":{"source":"cadastre-dgi-fr source : Direction Générale des Finances Publiques - Cadastre. Mise à jour : 2015","building":"yes"}}
{"tags":{"source":"cadastre-dgi-fr source : Direction Générale des Finances Publiques - Cadastre. Mise à jour : 2017","building":"yes","wall":"no"}}
{"tags":{"surface":"ground","operator":"Doboku Regency","name":"Libertis","sport":"volleyball","leisure":"pitch"}}
{"tags":{"service":"parking_aisle","surface":"paved","access":"private","highway":"path"}}
{"tags":{"source":"microsoft/BuildingFootprints","building":"yes"}}
{"tags":{"tiger:name_direction_suffix":"S","tiger:reviewed":"no","tiger:name_base":"7th","tiger:cfcc":"A41","tiger:county":"Cascade, MT","name":"7th Street South","tiger:name_type":"St","highway":"residential"}}
{"tags":{"source":"cadastre-dgi-fr source : Direction Générale des Impôts - Cadastre. Mise à jour : 2013","name":"Chemin Rural des Chézeaux aux Caillotes","highway":"track"}}
{"tags":{"highway":"footway","surface":"concrete"}}
{"tags":{"bridge":"yes","layer":"1","highway":"unclassified"}}
{"tags":{"trees":"avocado_trees","landuse":"orchard"}}
{"tags":{"building":"yes"}}
{"tags":{"building:part":"yes","building:levels":"4","roof:shape":"flat"}}
{"tags":{"noname":"yes","source":"Origine Commune de Chefchaouen Septembre 2014","building":"yes"}}
{"tags":{"surface":"asphalt","maxspeed":"30","highway":"residential"}}
{"tags":{"layer":"1","surface":"asphalt","ref":"N4","bridge":"yes","highway":"trunk"}}
{"tags":{"building:levels":"1","source":"www.geoportal.gov.pl","building":"outbuilding"}}
{"tags":{"lit":"no","surface":"ground","highway":"footway"}}
{"tags":{"barrier":"fence"}}
{"tags":{"addr:street":"Административная улица","building":"apartments","building:levels":"2","roof:colour":"gray","addr:housenumber":"16","roof:shape":"hipped"}}
{"tags":{"addr:street":"Phipps Road","source:building":"Bing","building":"house","addr:postcode":"OX4 3HJ","addr:city":"Oxford","addr:housenumber":"19"}}
{"tags":{"addr:street":"Northeast Washington Street","building":"yes","addr:postcode":"55418","est_height":"5.7","start_date":"1924","addr:city":"Minneapolis","addr:housenumber":"2542"}}
{"tags":{"highway":"unclassified"}}
{"tags":{"service":"parking_aisle","highway":"service"}}
{"tags":{"highway":"residential"}}
{"tags":{"building":"yes"}}
{"tags":{"building":"yes"}}
{"tags":{"building":"residential"}}
{"tags":{"waterway":"drain"}}
{"tags":{"name":"Chemin du Cugnet","highway":"service"}}
{"tags":{"building":"yes"}}
{"tags":{"service":"parking_aisle","surface":"asphalt","highway":"service"}}
{"tags":{"source":"Maps4BW LGL www.lgl-bw.de","waterway":"stream"}}
{"tags":{"leisure":"garden"}}
{"tags":{"building":"yes"}}
{"tags":{"oneway":"yes","access":"customers","highway":"service"}}
{"tags":{"addr:street":"Cmentarna","addr:city:simc":"0615799","building":"yes","addr:postcode":"26-510","addr:street:sym_ul":"03114","addr:city":"Chlewiska","source:addr":"chlewiska.e-mapa.net","addr:housenumber":"31"}}
{"tags":{"highway":"service"}}
{"tags":{"landuse":"grass"}}
{"tags":{"bicycle":"use_sidepath","oneway":"yes","sidewalk:right:surface":"paving_stones","name":"Rua Senhor dos Aflitos","highway":"residential","sidewalk":"right","surface":"asphalt","lanes":"1","lit":"yes"}}
{"tags":{"source":"CANVEC"}}
{"tags":{"building":"yes"}}
{"tags":{"tracktype":"grade3","highway":"track"}}
{"tags":{"building":"yes"}}
{"tags":{"building":"yes"}}
{"tags":{"building":"yes"}}
{"tags":{"highway":"service"}}
{"tags":{"landuse":"forest"}}
{"tags":{"building":"yes"}}
{"tags":{"amenity":"shelter","shelter_type":"public_transport"}}
{"tags":{"building":"yes"}}
{"tags":{"building":"yes"}}
{"tags":{"highway":"footway"}}
{"tags":{"highway":"service"}}
{"tags":{"building":"yes"}}
{"tags":{"building":"yes"}}
{"tags":{"source":"Regione Emilia Romagna","building":"yes"}}
{"tags":{"highway":"track"}}
{"tags":{"natural":"water"}}
{"tags":{"building":"yes"}}
{"tags":{"amenity":"parking"}}
{"tags":{"wetland":"marsh","natural":"wetland"}}
{"tags":{"highway":"service"}}
{"tags":{"building":"yes"}}
{"tags":{"amenity":"recycling","recycling_type":"container"}}
{"tags":{"source":"cadastre-dgi-fr source : Direction Générale des Impôts - Cadastre. Mise à jour : 2010","building":"yes","wall":"no"}}
{"tags":{"source":"NRCan-CanVec-7.0","natural":"wood"}}
{"tags":{"nat_name:en":"National Highway Route 6","oneway":"no","nat_name":"国道6号","maxspeed":"50","turn:lanes:forward":"left;through|right","name":"陸前浜街道","name:en":"Rikuzenhama-kaido Avenue","highway":"trunk","name:ja":"陸前浜街道","surface":"asphalt","lanes:forward":"2","lanes:backward":"1","ref":"6","lanes":"3","alt_name":"国道6号"}}
{"tags":{"building":"yes"}}
{"tags":{"building":"yes"}}
{"tags":{"building:levels":"1","source":"www.geoportal.gov.pl","building":"outbuilding"}}
{"tags":{"building":"yes"}}
{"tags":{"building":"yes"}}
{"tags":{"addr:street":"Subedžio g.","source":"ORT10LT","building":"yes","addr:city":"Kalnėnai","addr:housenumber":"28A"}}
{"tags":{"man_made":"cutline","source":"NRCan-CanVec-7.0"}}
{"tags":{"lit":"yes","leisure":"pitch","name":"Campo de Fútbol Pedra do Ouro","sport":"soccer"}}
{"tags":{"seasonal":"no","intermittent":"yes","waterway":"stream"}}
{"tags":{"addr:street":"Strachan Avenue","building":"residential"}}
{"tags":{"building":"yes"}}
{"tags":{"building":"yes","est_height":"5.2"}}
{"tags":{"building":"yes"}}
{"tags":{"building":"yes"}}
{"tags":{"building":"yes","est_height":"3.0"}}
{"tags":{"barrier":"hedge"}}
{"tags":{"building":"yes"}}
{"tags":{"source":"microsoft/BuildingFootprints","building":"yes","est_height":"6.0"}}
{"tags":{"building":"yes"}}
{"tags":{"name":"Calle Fornunato Perez","highway":"residential"}}
{"tags":{"source":"Planimetria de Vitoria","building":"yes"}}
{"tags":{"source":"cadastre-dgi-fr source : Direction Générale des Finances Publiques - Cadastre. Mise à jour : 2018","building":"yes"}}
{"tags":{"note:de":"Schonung bze. Windwurffläche im Forst","natural":"scrub"}}
{"tags":{"building":"yes"}}
{"tags":{"oneway":"no","tiger:zip_left":"31636","maxspeed":"45 mph","tiger:cfcc":"A41","name":"Peterson Road","tiger:name_type":"Rd","highway":"unclassified","tiger:reviewed":"yes","sidewalk":"no","surface":"asphalt","tiger:zip_right":"31636","tiger:name_base":"Peterson","tiger:county":"Lowndes, GA","lanes":"2"}}
{"tags":{"addr:street":"North 44th Street","building":"yes","addr:postcode":"53210","est_height":"7.0","addr:city":"Milwaukee","addr:state":"WI","addr:housenumber":"2519"}}
{"tags":{"building":"yes"}}
{"tags":{"building":"yes"}}
{"tags":{"natural":"wood"}}
{"tags":{"building":"yes"}}
{"tags":{"building":"yes"}}
{"tags":{"source":"Maxar","name":"Đường tỉnh 203","ref":"HCM;ĐT.203","lanes":"2","highway":"primary"}}
{"tags":{"building":"yes"}}
{"tags":{"source":"cadastre-dgi-fr source : Direction Générale des Impôts - Cadastre. Mise à jour : 2012","building":"yes"}}
{"tags":{"addr:street":"Calle Pedernal","building":"residential","addr:postcode":"28905","addr:city":"Getafe","building:levels":"3","building:levels:underground":"1","addr:housenumber":"15"}}
{"tags":{"building":"yes"}}
{"tags":{"source":"microsoft/BuildingFootprints","building":"yes"}}
{"tags":{"building":"house","height":"5"}}
{"tags":{"building":"yes"}}
{"tags":{"landuse":"meadow"}}
{"tags":{"layer":"-1","tunnel":"culvert","source":"Bing","waterway":"ditch"}}
{"tags":{"building":"yes"}}
{"tags":{"water":"reservoir","natural":"water"}}
{"tags":{"intermittent":"yes","waterway":"stream"}}
{"tags":{"building":"yes"}}
{"tags":{"building":"yes"}}
{"tags":{"addr:street":"Masanscher Weg","addr:country":"DE","building":"yes","addr:postcode":"39175","addr:city":"Möser","addr:housenumber":"4","addr:suburb":"Körbelitz"}}
{"tags":{"building":"yes"}}
{"tags":{"name":"Former Continental Carbon site","landuse":"brownfield"}}
{"tags":{"addr:street":"Neubergerweg","addr:country":"DE","building":"yes","addr:postcode":"22419","addr:city":"Hamburg","addr:housenumber":"155"}}
{"tags":{"capacity":"3","fee":"no","surface":"asphalt","access":"yes","orientation":"parallel","parking":"street_side","amenity":"parking"}}
{"tags":{"addr:street":"South Mechanic Street","addr:city":"Albany","building":"shed","addr:postcode":"53502"}}
{"tags":{"source":"cadastre-dgi-fr source : Direction Générale des Impôts - Cadastre. Mise à jour : 2011","building":"yes"}}
{"tags":{"building":"yes","est_height":"3.3"}}
{"tags":{"building":"yes"}}
{"tags":{"power":"minor_line","operator":"Enedis","cables":"3","voltage":"20000"}}
{"tags":{"landuse":"forest"}}
{"tags":{"building":"industrial","height":"4.18"}}
{"tags":{"source":"YahooJapan/ALPSMAP","highway":"residential"}}
{"tags":{"building":"yes"}}
{"tags":{"footway":"sidewalk","highway":"footway"}}
{"tags":{"highway":"service"}}
{"tags":{"building":"garage","ref:bygningsnr":"81799377"}}
{"tags":{"highway":"service"}}
{"tags":{"building":"yes"}}
{"tags":{"source":"cadastre-dgi-fr source : Direction Générale des Impôts - Cadastre. Mise à jour : 2010","building":"yes"}}
{"tags":{"name":"Orlik Open","landuse":"recreation_ground"}}
{"tags":{"addr:street":"West Rodeo Road Avenue","building":"yes","est_height":"4.9","name":"Family Dollar","addr:city":"North Platte","addr:housenumber":"521"}}
{"tags":{"source":"maxar","highway":"residential"}}
{"tags":{"landuse":"forest"}}
{"tags":{"building":"yes"}}
{"tags":{"addr:street":"Fredrick Place","building":"house","addr:postcode":"08859","addr:city":"Parlin","addr:state":"NJ","addr:housenumber":"15"}}
{"tags":{"building":"house"}}
{"tags":{"building":"yes"}}
{"tags":{"building":"yes"}}
{"tags":{"highway":"service"}}
{"tags":{"building":"yes","operator":"PKP Polskie Linie Kolejowe S.A.","railway:ref":"ŚK","name":"Święta Katarzyna ŚK","railway:signal_box":"electronic","railway":"signal_box"}}
{"tags":{"raba:id":"1100","source:date":"2017-09-30","source":"RABA-KGZ","landuse":"farmland"}}
{"tags":{"service":"parking_aisle","highway":"service"}}
{"tags":{"highway":"track"}}
{"tags":{"natural":"wood"}}
{"tags":{"service":"alley","highway":"service"}}
{"tags":{"access":"yes","leisure":"playground"}}
{"tags":{"building":"yes"}}
{"tags":{"building":"yes"}}
{"tags":{"building":"yes"}}
{"tags":{"layer":"1","oneway":"yes","name":"南坪快速","bridge":"yes","name:en":"Nantou-Pingshan Expressway","name:zh-Hans":"南坪快速","highway":"motorway","name:zh":"南坪快速"}}
{"tags":{"source":"microsoft/BuildingFootprints","building":"yes","est_height":"4.7"}}
{"tags":{"sidewalk":"both","surface":"asphalt","name":"Calle 4 NE (Unión)","lit":"yes","highway":"residential"}}
{"tags":{"highway":"residential"}}
{"tags":{"building":"yes"}}
{"tags":{"building":"yes"}}
{"tags":{"oneway":"yes","surface":"asphalt","maxspeed":"15 mph","name":"North 49th Avenue","postal_code":"85304","lanes":"2","smoothness":"good","highway":"residential"}}
{"tags":{"building":"yes"}}
{"tags":{"service":"parking_aisle","surface":"asphalt","highway":"service"}}
{"tags":{"highway":"residential"}}
{"tags":{"building":"yes"}}
{"tags":{"highway":"footway"}}
{"tags":{"addr:street":"Naunton Way","building":"yes","addr:housenumber":"53"}}
{"tags":{"amenity":"toilets","building:levels":"1","source":"GSImaps/seamlessphoto;survey","building":"yes"}}
{"tags":{"building":"yes"}}
{"tags":{"building":"yes","est_height":"4.6"}}
{"tags":{"surface":"unpaved","tracktype":"grade3","highway":"track"}}
{"tags":{"highway":"residential"}}
{"tags":{"access":"permissive","maxspeed":"5 mph","name":"Paxton Place","highway":"service"}}
{"tags":{"building":"yes"}}
{"tags":{"building":"yes"}}
{"tags":{"addr:street":"переулок Сартау","addr:country":"KZ","building":"yes","addr:housenumber":"3"}}
{"tags":{"building":"yes"}}
{"tags":{"source":"microsoft/BuildingFootprints","building":"yes"}}
{"tags":{"building":"yes"}}
{"tags":{"building":"yes"}}
{"tags":{"building":"yes"}}
{"tags":{"building":"yes"}}
{"tags":{"KSJ2:RIC":"8404030000","KSJ2:RIN":"名称不明","KSJ2:filename":"W05-07_15.xml","note:ja":"国土数値情報(河川データ)平成18年国土交通省","KSJ2:river_id":"gb02_06945","source_ref":"http://nlftp.mlit.go.jp/ksj/jpgis/datalist/KsjTmplt-W05.html","waterway":"stream","KSJ2:DFD":"流下方向不明","layer":"-1","KSJ2:curve_id":"c06945","source":"KSJ2","note":"National-Land Numerical Information (River) 2006, MLIT Japan","KSJ2:LOC":"c06945","KSJ2:WSC":"840403","KSJ2:COP_label":"不明"}}
{"tags":{"building":"yes","est_height":"3.9"}}
{"tags":{"highway":"residential"}}
{"tags":{"surface":"unpaved","source":"maxar","highway":"track"}}
{"tags":{"highway":"steps"}}
{"tags":{"foot":"designated","bicycle":"designated","highway":"path"}}
{"tags":{"building":"yes"}}
{"tags":{"barrier":"fence","fence_type":"barbed_wire"}}
{"tags":{"building":"yes","lacounty:ain":"2689002909","lacounty:bld_id":"413520904444","height":"2.8","ele":"250.7"}}
{"tags":{"building":"yes","est_height":"5.7"}}
{"tags":{"condition":"deficient","width":"9.1","highway":"service","attribution":"Office of Geographic and Environmental Information (MassGIS)","surface":"unpaved","source":"massgis_import_v0.1_20071009085412","massgis:way_id":"155117","service":"driveway","lanes":"2"}}
{"tags":{"building":"yes"}}
{"tags":{"building":"yes"}}
{"tags":{"addr:street":"Reta","building:material":"brick","building":"residential","addr:postcode":"43-190","construction_date":"2001","building:levels":"2","source:addr":"EMUiA (emuia.gugik.gov.pl)","addr:housenumber":"41c","source":"Powiat mikołowski","addr:city":"Mikołów","building:usage:pl":"Mieszkalny"}}
{"tags":{"building":"yes"}}
{"tags":{"building":"yes"}}
{"tags":{"dibavod:id":"1350","natural":"wetland","source":"dibavod A06"}}
{"tags":{"building":"yes"}}
{"tags":{"building":"yes","est_height":"6.5"}}
{"tags":{"building":"yes"}}
{"tags":{"waterway":"stream"}}
{"tags":{"source":"cadastre-dgi-fr source : Direction Générale des Impôts - Cadastre. Mise à jour : 2010","building":"yes"}}
{"tags":{"highway":"residential"}}
{"tags":{"addr:country":"AT","building":"yes","addr:postcode":"8783","at_bev:addr_date":"2016-10-02","addr:city":"Gaishorn am See","addr:place":"Gaishorn am See","addr:housenumber":"189"}}
{"tags":{"source":"cadastre recalé avec Bing","building":"yes"}}
{"tags":{"oneway":"no","surface":"unpaved","highway":"unclassified"}}
{"tags":{"source":"cadastre-dgi-fr source : Direction Générale des Finances Publiques - Cadastre. Mise à jour : 2019","building":"yes","wall":"no"}}
{"tags":{"building":"residential"}}
{"tags":{"highway":"residential"}}
{"tags":{"building":"yes"}}
{"tags":{"building":"house"}}
{"tags":{"building":"yes"}}
{"tags":{"building":"yes"}}
{"tags":{"highway":"tertiary","surface":"unpaved"}}
{"tags":{"addr:street":"Aðalbraut","building":"yes","addr:postcode":"675","addr:housenumber":"51"}}
{"tags":{"electrified":"no","source":"NRCan-CanVec-8.0","operator":"Canadian National Railway","name":"Brazeau Subdivision","railway":"rail","gauge":"1435","usage":"branch"}}
{"tags":{"landuse":"farmland"}}
{"tags":{"source":"NRCan-CanVec-10.0","natural":"wetland"}}
{"tags":{"building":"yes"}}
{"tags":{"service":"parking_aisle","highway":"service"}}
{"tags":{"lanes":"1","surface":"fine_gravel","highway":"unclassified"}}
{"tags":{"building":"yes"}}
{"tags":{"building":"yes"}}
{"tags":{"waterway":"ditch"}}
{"tags":{"building":"yes","est_height":"3.8"}}
{"tags":{"layer":"-1","surface":"paved","lit":"yes","tunnel":"yes","highway":"footway"}}
{"tags":{"building":"yes"}}
{"tags":{"oneway":"yes","name":"Cale Bossant","highway":"residential"}}
{"tags":{"building":"yes"}}
{"tags":{"addr:street":"Rahkatie","building":"bungalow","addr:postcode":"98530","addr:housenumber":"5a"}}
{"tags":{"source":"microsoft/BuildingFootprints","building":"yes","est_height":"4.0"}}
{"tags":{"building":"yes"}}
{"tags":{"addr:street":"Vincent Avenue South","building":"yes","addr:postcode":"55410","est_height":"5.5","start_date":"1915","addr:city":"Minneapolis","addr:housenumber":"3916"}}
{"tags":{"building":"yes"}}
{"tags":{"addr:street":"Kampstraße","building":"yes","addr:postcode":"58809","est_height":"5.2","addr:city":"Neuenrade","addr:housenumber":"11"}}
{"tags":{"building":"yes"}}
{"tags":{"building":"yes"}}
{"tags":{"source":"cadastre-dgi-fr source : Direction Générale des Impôts - Cadastre. Mise à jour : 2010","building":"yes"}}
{"tags":{"source":"cuzk:ruian","building":"residential","ref:ruian:building":"8954097","building:ruian:type":"3","building:levels":"1","building:flats":"1"}}
{"tags":{"building":"house"}}
{"tags":{"building":"house"}}
{"tags":{"building":"yes"}}
{"tags":{"source:name:br":"ofis publik ar brezhoneg","source":"CCPC mai 2010","name":"Rue du Ménez Gorré","name:br":"Straed Menez Gorre","highway":"residential"}}
{"tags":{"building":"yes","est_height":"5.1"}}
{"tags":{"building":"yes"}}
{"tags":{"building":"yes"}}
{"tags":{"service":"parking_aisle","surface":"asphalt","highway":"service"}}
{"tags":{"source":"microsoft/BuildingFootprints","building":"yes"}}
{"tags":{"building":"yes"}}
{"tags":{"building":"yes"}}
{"tags":{"highway":"service"}}
{"tags":{"source":"survey & Esri World Imagery 25-06-20","landuse":"farmland"}}
{"tags":{"building":"yes"}}
{"tags":{"barrier":"fence","fence_type":"chain_link"}}
{"tags":{"bicycle":"dismount","motor_vehicle":"permit","access":"permissive","highway":"service"}}
{"tags":{"building":"house","est_height":"8.6"}}
{"tags":{"highway":"service","covered":"yes"}}
{"tags":{"building":"retail","est_height":"4.5"}}
{"tags":{"building":"garage","ref:bygningsnr":"191751949"}}
{"tags":{"location":"underground","layer":"-1","operator":"TR Offshore, LLC","name":"South Mustang Island Gathering System","substance":"gas","diameter":"2.38\"","man_made":"pipeline","usage":"gathering"}}
{"tags":{"frequency":"60","cables":"3","voltage":"138000","line":"busbar","power":"line"}}
{"tags":{"building":"shed"}}
{"tags":{"addr:street":"Hrušková","building":"residential","addr:postcode":"83106","ref:minvskaddress":"7101736675","source:addr":"minvskaddress 2023-11","addr:housenumber":"10197/44I","addr:conscriptionnumber":"10197","addr:country":"SK","addr:streetnumber":"44I","source":"kapor2","addr:city":"Bratislava","addr:suburb":"Rača"}}
{"tags":{"addr:street":"Warwick Road","source":"esri_USDOT_Virginia","building":"yes","addr:postcode":"23224","est_height":"4.4","addr:city":"Richmond","addr:state":"VA","addr:housenumber":"5069"}}
{"tags":{"source":"DigitalGlobe Premium Imagery","building":"yes"}}
{"tags":{"tiger:cfcc":"A41","name":"Shoshone Falls Grade","tiger:name_base_1":"Champlin","tiger:name_type_1":"Rd","tiger:name_type":"Grd","name_1":"Champlin Road","highway":"tertiary","tiger:reviewed":"no","tiger:name_base":"Shoshone Falls","tiger:county":"Twin Falls, ID"}}
{"tags":{"building":"yes"}}
{"tags":{"building":"detached","est_height":"4.6"}}
{"tags":{"addr:street":"Rue Marceau","source":"cadastre-dgi-fr source : Direction Générale des Impôts - Cadastre. Mise à jour : 2011","building":"yes","addr:postcode":"77380","addr:city":"Combs-la-Ville","addr:housenumber":"12"}}
{"tags":{"access":"private","highway":"service"}}
{"tags":{"building":"yes"}}
{"tags":{"source":"cadastre-dgi-fr source : Direction Générale des Impôts - Cadastre. Mise à jour : 2010","building":"yes"}}
{"tags":{"building":"yes"}}
{"tags":{"highway":"path"}}
{"tags":{"source":"Bing","building":"yes"}}
{"tags":{"source":"microsoft/BuildingFootprints","building":"detached","est_height":"3.8"}}
{"tags":{"name":"忠孝西路131巷","highway":"residential"}}
{"tags":{"building":"yes"}}
{"tags":{"building":"yes"}}
{"tags":{"building":"yes"}}
{"tags":{"building":"yes"}}
{"tags":{"service":"parking_aisle","access":"customers","highway":"service"}}
{"tags":{"building":"yes"}}
{"tags":{"healthcare":"rehabilitation","name":"Michael's House Stabilization Center"}}
{"tags":{"building":"yes"}}
{"tags":{"building:levels":"1","source":"www.geoportal.gov.pl","building":"yes"}}
{"tags":{"service":"driveway","highway":"service"}}
{"tags":{"surface":"sand"}}
{"tags":{"source":"NRCan-CanVec-8.0","natural":"water"}}
{"tags":{"access":"permissive","highway":"service"}}
{"tags":{"addr:city":"Tabango","building":"house","addr:postcode":"6536","addr:province":"Leyte"}}
{"tags":{"landuse":"residential"}}
{"tags":{"KSJ2:ODC":"数値地図25000空間データ基盤","source":"KSJ2","name":"ラルマナイ川","note":"National-Land Numerical Information (River) 2009, MLIT Japan","note:ja":"国土数値情報(河川データ)平成21年度 国土交通省","source_ref":"http://nlftp.mlit.go.jp/ksj/jpgis/datalist/KsjTmplt-W05.html","waterway":"stream"}}
{"tags":{"source":"extraction vectorielle v1 cadastre-dgi-fr source : Direction Générale des Impôts - Cadas. Mise à jour : 2010","building":"yes"}}
{"tags":{"source":"Regione Emilia Romagna","building":"yes"}}
{"tags":{"man_made":"groyne"}}
{"tags":{"building":"yes"}}
{"tags":{"source":"cadastre-dgi-fr source : Direction Générale des Impôts - Cadastre. Mise à jour : 2011","building":"yes","wall":"no"}}
{"tags":{"building":"roof"}}
{"tags":{"building":"yes","est_height":"5.6"}}
{"tags":{"source":"BAG","building":"house","start_date":"1930","source:date":"2014-09-07","ref:bag":"80100000359386"}}
{"tags":{"addr:interpolation":"even"}}
{"tags":{"building":"yes"}}
{"tags":{"highway":"residential"}}
{"tags":{"building":"retail"}}
{"tags":{"building":"residential","building:part":"construction"}}
{"tags":{"addr:street":"1-я улица Шевцовой","building":"yes","addr:housenumber":"27"}}
{"tags":{"building":"yes"}}
{"tags":{"highway":"service"}}
{"tags":{"addr:street":"Rayleigh Road","building":"house","addr:postcode":"SW19 3RE","addr:city":"London","building:levels":"2","addr:housenumber":"35"}}
{"tags":{"barrier":"fence"}}
{"tags":{"source":"cuzk:km","building":"yes"}}
{"tags":{"barrier":"fence"}}
{"tags":{"building":"yes"}}
{"tags":{"source":"microsoft/BuildingFootprints","building":"yes"}}
{"tags":{"highway":"unclassified"}}
{"tags":{"addr:street":"Southeast Brooklyn Street","building":"detached","addr:postcode":"97202","est_height":"4.5","building:levels":"1","addr:housenumber":"4047","height":"6.0","addr:city":"Portland","ele":"45.6"}}
{"tags":{"building":"yes"}}
{"tags":{"building":"yes"}}
{"tags":{"building":"yes"}}
{"tags":{"building":"yes"}}
{"tags":{"building":"yes"}}
{"tags":{"source":"cadastre-dgi-fr source : Direction Générale des Impôts - Cadastre. Mise à jour : 2012","building":"yes","est_height":"3.7"}}
{"tags":{"addr:street":"Oude Braak","building":"house","addr:housenumber":"9"}}
{"tags":{"building":"yes","addr:housenumber":"19"}}
{"tags":{"highway":"residential"}}
{"tags":{"source":"Bing","landuse":"residential"}}
{"tags":{"tiger:reviewed":"no","access":"private","tiger:cfcc":"A41","tiger:county":"Bee, TX","highway":"track"}}
{"tags":{"leaf_type":"broadleaved","leaf_cycle":"deciduous","landuse":"forest"}}
{"tags":{"highway":"track","surface":"unpaved"}}
{"tags":{"building":"yes"}}
{"tags":{"building":"yes"}}
{"tags":{"source":"Landsat","natural":"water"}}
{"tags":{"building":"yes"}}
{"tags":{"source":"microsoft/BuildingFootprints","building":"yes"}}
{"tags":{"addr:street":"Batalionów Chłopskich","building":"residential","addr:postcode":"75-308","addr:city":"Koszalin","source:addr":"http://koszalin.punktyadresowe.pl","addr:housenumber":"54"}}
{"tags":{"building":"yes"}}
{"tags":{"building":"yes"}}
{"tags":{"highway":"residential"}}
{"tags":{"leaf_type":"mixed","natural":"tree_row"}}
{"tags":{"building":"yes"}}
{"tags":{"highway":"service"}}
{"tags":{"building":"yes"}}
{"tags":{"source":"cadastre-dgi-fr source : Direction Générale des Impôts - Cadastre. Mise à jour : 2010","building":"yes","wall":"no"}}
{"tags":{"landuse":"farmland"}}
{"tags":{"source":"cadastre-dgi-fr source : Direction Générale des Impôts - Cadastre. Mise à jour : 2013","building":"yes"}}
{"tags":{"addr:street":"Майский переулок","addr:city":"Цимлянск","building":"yes","addr:housenumber":"27"}}
{"tags":{"building":"yes"}}
{"tags":{"building":"yes","est_height":"6.1"}}
{"tags":{"barrier":"wall"}}
{"tags":{"building":"yes"}}
{"tags":{"leisure":"pitch","sport":"tennis"}}
{"tags":{"tracktype":"grade3","name":"Chemin de l'Embarras","highway":"track"}}
{"tags":{"building":"yes"}}
{"tags":{"addr:street":"Лідская вуліца","building":"house","addr:postcode":"231311","addr:place":"Мінойты","addr:housenumber":"40"}}
{"tags":{"highway":"track"}}
{"tags":{"addr:street":"Ackergasse","addr:country":"AT","building":"detached","addr:postcode":"8430","at_bev:addr_date":"2019-10-01","addr:city":"Leibnitz","addr:housenumber":"13"}}
{"tags":{"building":"yes"}}
{"tags":{"addr:street":"Bahnhofgasse","addr:country":"AT","source":"Bing","building":"yes","addr:postcode":"3710","at_bev:addr_date":"2021-10-01","addr:city":"Ziersdorf","addr:housenumber":"10"}}
{"tags":{"roof:material":"roof_tiles","source":"cadastre-dgi-fr source : Direction Générale des Impôts - Cadastre. Mise à jour : 2012","building":"yes"}}
{"tags":{"building":"yes"}}
{"tags":{"building":"yes"}}
{"tags":{"footway":"sidewalk","highway":"footway"}}
{"tags":{"amenity":"parking_space"}}
{"tags":{"building":"yes"}}
{"tags":{"addr:street":"Цэнтральная вуліца","building":"house","addr:housenumber":"42"}}
{"tags":{"landuse":"grass"}}
{"tags":{"building":"house","est_height":"15.4","lacounty:ain":"5610030069","lacounty:bld_id":"490046900887","building:units":"1","start_date":"1951","height":"3.6","ele":"424.0"}}
{"tags":{"building":"yes"}}
{"tags":{"building":"yes"}}
{"tags":{"building":"house"}}
{"tags":{"highway":"residential"}}
{"tags":{"building":"yes"}}
{"tags":{"maxspeed":"30","name":"Tietzenweg","postal_code":"12203","cycleway:both":"no","highway":"residential","sidewalk":"both","surface":"asphalt","name:etymology:wikidata":"Q98270743","lit":"yes"}}
{"tags":{"building":"yes"}}
{"tags":{"source":"BAG","building":"house","start_date":"1969","source:date":"2014-03-24","ref:bag":"383100000026051"}}
{"tags":{"addr:street":"North Jennifer Lane","source":"esri_USDOT_RiverCom911_WA;microsoft/BuildingFootprints","building":"residential","addr:postcode":"98802","est_height":"3.2","addr:city":"East Wenatchee","addr:state":"WA","addr:housenumber":"703"}}
{"tags":{"proposed:frequency":"16.7","passenger_lines":"2","electrified":"no","railway:preferred_direction":"backward","maxspeed":"60","operator":"DB Netz AG","name":"Bayerische Allgäubahn","proposed:voltage":"15000","railway":"rail","gauge":"1435","usage":"main","source:maxspeed":"Signalstellung Ausfahrt von Gleis 1","proposed:electrified":"contact_line","ref":"5362"}}
{"tags":{"building":"yes"}}
{"tags":{"addr:street":"Nursery Hollow","source:addr:postcode":"OS Open Data Codepoint","building":"detached","addr:postcode":"DE7 4LQ","est_height":"5.8","source:geometry":"Digital Globe imagery; Bing imagery","addr:city":"Ilkeston","addr:housenumber":"20"}}
{"tags":{"building":"yes"}}
{"tags":{"source":"Bing","building":"yes"}}
{"tags":{"fee":"Mo-Fr 08:00-18:00","surface":"paving_stones","opening_hours":"24/7","operator":"ZDM Poznań","parking":"street_side","lit":"yes","amenity":"parking","supervised":"no"}}
{"tags":{"name":"Jalan Salak IV","highway":"residential"}}
{"tags":{"natural":"wood"}}
{"tags":{"source":"cadastre-dgi-fr source : Direction Générale des Impôts - Cadastre. Mise à jour : 2011","building":"yes","wall":"no"}}
{"tags":{"maxspeed":"30","name":"Kirchweg","highway":"residential"}}
{"tags":{"building:colour":"#ECE3D4","source":"cadastre-dgi-fr source : Direction Générale des Impôts - Cadastre. Mise à jour : 2010","building":"house","roof:material":"slate","height":"7","building:levels":"2","roof:colour":"#686673","roof:shape":"gabled"}}
{"tags":{"leisure":"park","name":"Ronald Bielby Park"}}
{"tags":{"building":"yes"}}
{"tags":{"building":"yes"}}
{"tags":{"waterway":"drain"}}
{"tags":{"building":"yes"}}
{"tags":{"building":"apartments"}}
{"tags":{"building":"yes"}}
{"tags":{"source":"maxar","highway":"residential"}}
{"tags":{"surface":"gravel","tracktype":"grade2","name":"Pulverbächleweg","highway":"track"}}
{"tags":{"building":"yes"}}
{"tags":{"barrier":"fence"}}
{"tags":{"building":"yes"}}
{"tags":{"bridge":"yes","railway":"monorail","usage":"industrial","type":"rack"}}
{"tags":{"passenger_lines":"2","electrified":"contact_line","maxspeed":"120","name":"京沪线","name:en":"Jinghu Line","railway":"rail","gauge":"1435","usage":"main","name:zh":"京沪线","name:zh-Hant":"京滬線","name:ja":"京滬線","frequency":"50","voltage":"25000","ref":"0002","name:zh-Hans":"京沪线"}}
{"tags":{"building":"yes"}}
{"tags":{"highway":"unclassified","surface":"unpaved"}}
{"tags":{"highway":"unclassified"}}
{"tags":{"building":"yes"}}
{"tags":{"building":"residential"}}
{"tags":{"building":"yes"}}
{"tags":{"maxspeed":"50","junction":"roundabout","bridge":"yes","highway":"trunk","layer":"1","surface":"asphalt","nat_ref":"FE-13","ref":"FE-13","lanes":"2"}}
{"tags":{"service":"drive-through","oneway":"yes","highway":"service"}}
{"tags":{"access":"private","name":"Rua Guarujá","highway":"service"}}
{"tags":{"oneway":"yes","source":"Bing","name":"Topçular - Feribot","highway":"trunk_link"}}
{"tags":{"building":"yes"}}
{"tags":{"tracktype":"grade4","highway":"track"}}
{"tags":{"highway":"service","oneway":"yes"}}
{"tags":{"addr:country":"AT","source":"geoimage.at MaxRes","building":"yes","addr:postcode":"4794","at_bev:addr_date":"2017-04-07","addr:city":"Kopfing im Innkreis","addr:place":"Ruholding","addr:housenumber":"22"}}
{"tags":{"natural":"wood"}}
{"tags":{"building":"yes"}}
{"tags":{"building":"yes"}}
{"tags":{"building":"yes"}}
{"tags":{"building":"yes"}}
{"tags":{"source":"Mapbox Satellite","building":"yes"}}
{"tags":{"building":"garage","ref:bygningsnr":"22697811"}}
{"tags":{"building":"house"}}
{"tags":{"building":"house","addr:postcode":"22-171","addr:place":"Wólka Kańska","source:addr":"UG Rejowiec Fabryczny","addr:housenumber":"33"}}
{"tags":{"source":"NRCan-CanVec-10.0","waterway":"stream"}}
{"tags":{"highway":"footway","surface":"asphalt"}}
{"tags":{"building":"house","est_height":"4.2"}}
{"tags":{"building":"yes"}}
{"tags":{"building":"yes"}}
{"tags":{"building":"detached"}}
{"tags":{"place":"neighbourhood","residential":"apartments","name":"ЖК \"Simple\"","landuse":"residential"}}
{"tags":{"source":"Eusko Jaurlaritza-Gobierno Vasco","natural":"scrub"}}
{"tags":{"building":"yes"}}
{"tags":{"building":"house"}}
{"tags":{"name":"SIDER","landuse":"industrial"}}
{"tags":{"building":"yes"}}
{"tags":{"building":"house"}}
{"tags":{"building":"yes"}}
{"tags":{"leisure":"pitch","sport":"baseball"}}
{"tags":{"addr:street":"Park Heights Avenue","addr:country":"US","building":"yes","addr:postcode":"21215","addr:city":"Baltimore","addr:state":"MD","addr:housenumber":"5807"}}
{"tags":{"building":"yes"}}
{"tags":{"natural":"tree_row"}}
{"tags":{"leaf_type":"needleleaved","leaf_cycle":"evergreen","landuse":"forest"}}
{"tags":{"building":"house","est_height":"3.5","lacounty:ain":"8417032069","lacounty:bld_id":"582332859631","building:units":"1","start_date":"1951","height":"3.1","ele":"142.4"}}
{"tags":{"building":"yes"}}
{"tags":{"building":"yes"}}
{"tags":{"fee":"no","access":"yes","orientation":"perpendicular","parking":"street_side","amenity":"parking"}}
{"tags":{"building":"yes"}}
{"tags":{"source:name":"TIGER2013","name":"North Nixon Avenue","highway":"residential"}}
{"tags":{"highway":"footway"}}
{"tags":{"highway":"footway"}}
{"tags":{"addr:state":"CA","source":"esri/SanGIS_Buildings","building":"yes"}}
{"tags":{"source":"cadastre-dgi-fr source : Direction Générale des Finances Publiques - Cadastre. Mise à jour : 2013","building":"yes","est_height":"3.4","wall":"no"}}
{"tags":{"service":"driveway","surface":"unpaved","highway":"service"}}
{"tags":{"highway":"service"}}
{"tags":{"building":"yes"}}
{"tags":{"building":"yes"}}
{"tags":{"building":"yes"}}
{"tags":{"service":"parking_aisle","highway":"service"}}
{"tags":{"leaf_type":"broadleaved","natural":"tree_row"}}
{"tags":{"building":"yes"}}
{"tags":{"highway":"track"}}
{"tags":{"building":"yes"}}
{"tags":{"building":"yes"}}
{"tags":{"building":"yes"}}
{"tags":{"barrier":"fence"}}
{"tags":{"source":"BAG","building":"house","start_date":"2019","source:date":"2022-03-31","ref:bag":"1900100010086628"}}
{"tags":{"highway":"service"}}
